{
  "type": "FeatureCollection",
  "features": [
    {
      "type": "Feature",
      "properties": {
        "norad_id": 35453,
        "name": "COSMOS 2251 DEB",
        "group": "cosmos-2251-debris",
        "lat": 42.24066553818172,
        "lon": 46.31705954286635,
        "alt_km": 787.1627797698329,
        "timestamp": "2025-12-06T20:37:56.471770+00:00",
        "meta_object_name": "COSMOS 2251 DEB",
        "meta_object_id": "1993-036AKX",
        "meta_epoch": "2025-12-02T12:53:58.122528",
        "meta_mean_motion": 14.3790654,
        "meta_eccentricity": 0.00680216,
        "meta_inclination": 74.0102,
        "meta_ra_of_asc_node": 39.1945,
        "meta_arg_of_pericenter": 175.6131,
        "meta_mean_anomaly": 184.5634,
        "meta_ephemeris_type": 0,
        "meta_classification_type": "U",
        "meta_norad_cat_id": 35453,
        "meta_element_set_no": 999,
        "meta_rev_at_epoch": 86072,
        "meta_bstar": 0.00098540606,
        "meta_mean_motion_dot": 3.03e-05,
        "meta_mean_motion_ddot": 0,
        "tle_line1": "1 35453U 93036AKX 25336.53747827  .00003030  00000+0  98541-3 0  9998",
        "tle_line2": "2 35453  74.0102  39.1945 0068021 175.6131 184.5634 14.37906540860721"
      },
      "geometry": {
        "type": "Point",
        "coordinates": [
          46.31705954286635,
          42.24066553818172
        ]
      }
    },
    {
      "type": "Feature",
      "properties": {
        "norad_id": 35455,
        "name": "COSMOS 2251 DEB",
        "group": "cosmos-2251-debris",
        "lat": 15.951576520140321,
        "lon": -49.46226893499843,
        "alt_km": 669.951377955852,
        "timestamp": "2025-12-06T20:37:56.471780+00:00",
        "meta_object_name": "COSMOS 2251 DEB",
        "meta_object_id": "1993-036AKZ",
        "meta_epoch": "2025-12-05T08:06:37.888128",
        "meta_mean_motion": 14.49263122,
        "meta_eccentricity": 0.0098804,
        "meta_inclination": 74.0283,
        "meta_ra_of_asc_node": 308.6971,
        "meta_arg_of_pericenter": 54.0721,
        "meta_mean_anomaly": 306.9556,
        "meta_ephemeris_type": 0,
        "meta_classification_type": "U",
        "meta_norad_cat_id": 35455,
        "meta_element_set_no": 999,
        "meta_rev_at_epoch": 86436,
        "meta_bstar": 0.0027436802,
        "meta_mean_motion_dot": 0.00011124,
        "meta_mean_motion_ddot": 0,
        "tle_line1": "1 35455U 93036AKZ 25339.33793852  .00011124  00000+0  27437-2 0  9998",
        "tle_line2": "2 35455  74.0283 308.6971 0098804  54.0721 306.9556 14.49263122864365"
      },
      "geometry": {
        "type": "Point",
        "coordinates": [
          -49.46226893499843,
          15.951576520140321
        ]
      }
    },
    {
      "type": "Feature",
      "properties": {
        "norad_id": 35456,
        "name": "COSMOS 2251 DEB",
        "group": "cosmos-2251-debris",
        "lat": -42.578992619925046,
        "lon": 113.58439716108671,
        "alt_km": 627.9351374479047,
        "timestamp": "2025-12-06T20:37:56.471791+00:00",
        "meta_object_name": "COSMOS 2251 DEB",
        "meta_object_id": "1993-036ALA",
        "meta_epoch": "2025-12-04T18:10:25.054752",
        "meta_mean_motion": 14.69179998,
        "meta_eccentricity": 0.00651966,
        "meta_inclination": 73.9491,
        "meta_ra_of_asc_node": 133.0155,
        "meta_arg_of_pericenter": 344.6308,
        "meta_mean_anomaly": 15.288,
        "meta_ephemeris_type": 0,
        "meta_classification_type": "U",
        "meta_norad_cat_id": 35456,
        "meta_element_set_no": 999,
        "meta_rev_at_epoch": 65758,
        "meta_bstar": 0.003747315,
        "meta_mean_motion_dot": 0.00022831,
        "meta_mean_motion_ddot": 0,
        "tle_line1": "1 35456U 93036ALA 25338.75723443  .00022831  00000+0  37473-2 0  9991",
        "tle_line2": "2 35456  73.9491 133.0155 0065196 344.6308  15.2880 14.69179998657589"
      },
      "geometry": {
        "type": "Point",
        "coordinates": [
          113.58439716108671,
          -42.578992619925046
        ]
      }
    },
    {
      "type": "Feature",
      "properties": {
        "norad_id": 35459,
        "name": "COSMOS 2251 DEB",
        "group": "cosmos-2251-debris",
        "lat": -63.11115141188551,
        "lon": 163.41585898027026,
        "alt_km": 783.2751790367129,
        "timestamp": "2025-12-06T20:37:56.471801+00:00",
        "meta_object_name": "COSMOS 2251 DEB",
        "meta_object_id": "1993-036ALD",
        "meta_epoch": "2025-12-05T21:33:57.544416",
        "meta_mean_motion": 14.37446258,
        "meta_eccentricity": 0.00165225,
        "meta_inclination": 73.8704,
        "meta_ra_of_asc_node": 199.9991,
        "meta_arg_of_pericenter": 150.1634,
        "meta_mean_anomaly": 210.0464,
        "meta_ephemeris_type": 0,
        "meta_classification_type": "U",
        "meta_norad_cat_id": 35459,
        "meta_element_set_no": 999,
        "meta_rev_at_epoch": 58263,
        "meta_bstar": 0.00040904083,
        "meta_mean_motion_dot": 1.198e-05,
        "meta_mean_motion_ddot": 0,
        "tle_line1": "1 35459U 93036ALD 25339.89858269  .00001198  00000+0  40904-3 0  9992",
        "tle_line2": "2 35459  73.8704 199.9991 0016522 150.1634 210.0464 14.37446258582635"
      },
      "geometry": {
        "type": "Point",
        "coordinates": [
          163.41585898027026,
          -63.11115141188551
        ]
      }
    },
    {
      "type": "Feature",
      "properties": {
        "norad_id": 35462,
        "name": "COSMOS 2251 DEB",
        "group": "cosmos-2251-debris",
        "lat": 11.005131948473064,
        "lon": 96.1761999423791,
        "alt_km": 847.8216698247816,
        "timestamp": "2025-12-06T20:37:56.471812+00:00",
        "meta_object_name": "COSMOS 2251 DEB",
        "meta_object_id": "1993-036ALG",
        "meta_epoch": "2025-12-01T03:45:45.448128",
        "meta_mean_motion": 14.29124029,
        "meta_eccentricity": 0.00870444,
        "meta_inclination": 74.036,
        "meta_ra_of_asc_node": 289.718,
        "meta_arg_of_pericenter": 327.319,
        "meta_mean_anomaly": 32.2589,
        "meta_ephemeris_type": 0,
        "meta_classification_type": "U",
        "meta_norad_cat_id": 35462,
        "meta_element_set_no": 999,
        "meta_rev_at_epoch": 66215,
        "meta_bstar": 0.0017949723,
        "meta_mean_motion_dot": 4.718e-05,
        "meta_mean_motion_ddot": 0,
        "tle_line1": "1 35462U 93036ALG 25335.15677602  .00004718  00000+0  17950-2 0  9996",
        "tle_line2": "2 35462  74.0360 289.7180 0087044 327.3190  32.2589 14.29124029662158"
      },
      "geometry": {
        "type": "Point",
        "coordinates": [
          96.1761999423791,
          11.005131948473064
        ]
      }
    },
    {
      "type": "Feature",
      "properties": {
        "norad_id": 35465,
        "name": "COSMOS 2251 DEB",
        "group": "cosmos-2251-debris",
        "lat": -73.97257803055436,
        "lon": 115.26914406160274,
        "alt_km": 759.1243479895638,
        "timestamp": "2025-12-06T20:37:56.471822+00:00",
        "meta_object_name": "COSMOS 2251 DEB",
        "meta_object_id": "1993-036ALK",
        "meta_epoch": "2025-11-29T22:48:34.232544",
        "meta_mean_motion": 14.44263019,
        "meta_eccentricity": 0.00634289,
        "meta_inclination": 73.9997,
        "meta_ra_of_asc_node": 220.8763,
        "meta_arg_of_pericenter": 24.0529,
        "meta_mean_anomaly": 336.3567,
        "meta_ephemeris_type": 0,
        "meta_classification_type": "U",
        "meta_norad_cat_id": 35465,
        "meta_element_set_no": 999,
        "meta_rev_at_epoch": 87057,
        "meta_bstar": 0.00049692277,
        "meta_mean_motion_dot": 1.723e-05,
        "meta_mean_motion_ddot": 0,
        "tle_line1": "1 35465U 93036ALK 25333.95039621  .00001723  00000+0  49692-3 0  9990",
        "tle_line2": "2 35465  73.9997 220.8763 0063428  24.0529 336.3567 14.44263019870576"
      },
      "geometry": {
        "type": "Point",
        "coordinates": [
          115.26914406160274,
          -73.97257803055436
        ]
      }
    },
    {
      "type": "Feature",
      "properties": {
        "norad_id": 35469,
        "name": "COSMOS 2251 DEB",
        "group": "cosmos-2251-debris",
        "lat": -9.636013737530503,
        "lon": 32.13431478069382,
        "alt_km": 781.0226372304141,
        "timestamp": "2025-12-06T20:37:56.471832+00:00",
        "meta_object_name": "COSMOS 2251 DEB",
        "meta_object_id": "1993-036ALP",
        "meta_epoch": "2025-12-05T21:29:38.924160",
        "meta_mean_motion": 14.49809382,
        "meta_eccentricity": 0.00772528,
        "meta_inclination": 74.0178,
        "meta_ra_of_asc_node": 36.7347,
        "meta_arg_of_pericenter": 193.7739,
        "meta_mean_anomaly": 166.1315,
        "meta_ephemeris_type": 0,
        "meta_classification_type": "U",
        "meta_norad_cat_id": 35469,
        "meta_element_set_no": 999,
        "meta_rev_at_epoch": 88012,
        "meta_bstar": 0.00021879134,
        "meta_mean_motion_dot": 8.47e-06,
        "meta_mean_motion_ddot": 0,
        "tle_line1": "1 35469U 93036ALP 25339.89558940  .00000847  00000+0  21879-3 0  9996",
        "tle_line2": "2 35469  74.0178  36.7347 0077252 193.7739 166.1315 14.49809382880128"
      },
      "geometry": {
        "type": "Point",
        "coordinates": [
          32.13431478069382,
          -9.636013737530503
        ]
      }
    }
  ]
}